{"type":"FeatureCollection","features":[{"type":"Feature","properties":{"zone":"Downtown Austin"},"geometry":{"type":"Polygon","coordinates":[[[-97.7274,30.28308],[-97.72603,30.28314],[-97.72514,30.2791],[-97.73005,30.27851],[-97.73152,30.27472],[-97.73724,30.25882],[-97.73599,30.25061],[-97.73826,30.25184],[-97.74098,30.25479],[-97.74368,30.2607],[-97.75199,30.26416],[-97.75118,30.26528],[-97.75204,30.26419],[-97.76827,30.27067],[-97.78427,30.28431],[-97.7856,30.28819],[-97.78588,30.29166],[-97.78526,30.29316],[-97.78598,30.29738],[-97.77915,30.30622],[-97.77588,30.31361],[-97.77383,30.3126],[-97.76904,30.31453],[-97.76728,30.31361],[-97.764,30.3187],[-97.7687,30.32105],[-97.76378,30.32735],[-97.76013,30.32555],[-97.75956,30.32641],[-97.75865,30.326],[-97.75815,30.32458],[-97.75705,30.32407],[-97.75629,30.31988],[-97.75764,30.30904],[-97.75248,30.30857],[-97.75074,30.30725],[-97.748,30.30722],[-97.74311,30.3052],[-97.73757,30.31346],[-97.73298,30.31084],[-97.73764,30.30349],[-97.73424,30.30175],[-97.73395,30.30072],[-97.72013,30.29428],[-97.72508,30.28656],[-97.7274,30.28308]],[[-97.75017,30.27649],[-97.75022,30.27661],[-97.75209,30.27403],[-97.75017,30.27649]],[[-97.75111,30.27858],[-97.75043,30.28056],[-97.75081,30.28137],[-97.75091,30.27999],[-97.75114,30.28171],[-97.75111,30.27854],[-97.75098,30.2783],[-97.75111,30.27858]],[[-97.75128,30.28238],[-97.75452,30.28476],[-97.75123,30.28227],[-97.75128,30.28238]],[[-97.75187,30.28365],[-97.75212,30.28361],[-97.7515,30.28285],[-97.75187,30.28365]],[[-97.74673,30.2831],[-97.74982,30.28394],[-97.75161,30.28368],[-97.74673,30.2831]],[[-97.74749,30.30581],[-97.74756,30.306],[-97.75009,30.30267],[-97.74749,30.30581]],[[-97.7472,30.29937],[-97.74712,30.29939],[-97.75009,30.30267],[-97.7472,30.29937]]]}},{"type":"Feature","properties":{"zone":"South Austin"},"geometry":{"type":"Polygon","coordinates":[[[-97.85936,30.14743],[-97.85486,30.14848],[-97.85758,30.15386],[-97.85911,30.15572],[-97.85999,30.15541],[-97.86015,30.16846],[-97.85499,30.17541],[-97.85932,30.17574],[-97.85836,30.17712],[-97.85932,30.17846],[-97.85324,30.17824],[-97.84235,30.19534],[-97.827,30.18778],[-97.84366,30.19601],[-97.84739,30.19642],[-97.84905,30.19726],[-97.8488,30.19774],[-97.84528,30.20216],[-97.84355,30.20188],[-97.84128,30.20023],[-97.84052,30.20174],[-97.83883,30.20086],[-97.8372,30.20344],[-97.83778,30.20411],[-97.83689,30.20602],[-97.83592,30.20556],[-97.83199,30.21139],[-97.8342,30.21127],[-97.83228,30.21343],[-97.83109,30.21282],[-97.82527,30.22216],[-97.82823,30.224],[-97.82906,30.22372],[-97.82477,30.22987],[-97.82352,30.22927],[-97.82057,30.23377],[-97.81833,30.23327],[-97.81842,30.23264],[-97.81151,30.23301],[-97.80637,30.23139],[-97.80353,30.23148],[-97.80291,30.23252],[-97.80673,30.23274],[-97.80607,30.23526],[-97.80729,30.23561],[-97.80575,30.23749],[-97.80821,30.2385],[-97.80723,30.23997],[-97.80814,30.24046],[-97.80597,30.24285],[-97.80249,30.24469],[-97.7969,30.23387],[-97.80242,30.24472],[-97.79843,30.24517],[-97.79338,30.2431],[-97.79234,30.24187],[-97.78986,30.2421],[-97.7887,30.24446],[-97.78948,30.2464],[-97.79217,30.24783],[-97.79668,30.24815],[-97.79572,30.25343],[-97.78517,30.25751],[-97.78419,30.25928],[-97.78555,30.26039],[-97.78371,30.26159],[-97.77544,30.26356],[-97.76761,30.2641],[-97.76066,30.26753],[-97.74368,30.2607],[-97.74098,30.25479],[-97.73826,30.25184],[-97.73599,30.25061],[-97.72376,30.2466],[-97.71351,30.25043],[-97.70188,30.2502],[-97.69838,30.24631],[-97.69128,30.24518],[-97.69067,30.24282],[-97.68791,30.24035],[-97.6793,30.22415],[-97.67647,30.22251],[-97.67927,30.22318],[-97.68329,30.22244],[-97.69037,30.21792],[-97.68992,30.2169],[-97.69495,30.21318],[-97.69819,30.21298],[-97.70045,30.21173],[-97.70613,30.21184],[-97.70964,30.21072],[-97.71166,30.21081],[-97.71271,30.21154],[-97.71251,30.21243],[-97.73508,30.21535],[-97.73573,30.21421],[-97.75193,30.21561],[-97.7573,30.20707],[-97.77234,30.18815],[-97.78624,30.16699],[-97.78594,30.16697],[-97.78926,30.16031],[-97.7952,30.14191],[-97.80435,30.11863],[-97.81325,30.09868],[-97.82077,30.1041],[-97.81869,30.10392],[-97.81768,30.10515],[-97.81763,30.10377],[-97.81828,30.10352],[-97.81775,30.1024],[-97.8146,30.10191],[-97.8114,30.10631],[-97.81174,30.12544],[-97.81249,30.12761],[-97.81187,30.13066],[-97.81041,30.13325],[-97.80708,30.13285],[-97.80659,30.13516],[-97.80156,30.14283],[-97.81042,30.1448],[-97.81334,30.14206],[-97.8303,30.14056],[-97.83063,30.13955],[-97.83161,30.13981],[-97.8314,30.14058],[-97.83779,30.14045],[-97.84699,30.14444],[-97.84749,30.14204],[-97.84661,30.14103],[-97.84931,30.14068],[-97.85022,30.13954],[-97.85544,30.14142],[-97.85859,30.14169],[-97.86172,30.144],[-97.86099,30.14566],[-97.86197,30.1463],[-97.86,30.1457],[-97.85936,30.14743]],[[-97.73506,30.24568],[-97.73503,30.24586],[-97.73599,30.25061],[-97.73506,30.24568]],[[-97.73532,30.24434],[-97.73559,30.24336],[-97.73547,30.24356],[-97.73532,30.24434]]]}},{"type":"Feature","properties":{"zone":"North Austin"},"geometry":{"type":"Polygon","coordinates":[[[-97.74311,30.3052],[-97.748,30.30722],[-97.75074,30.30725],[-97.75449,30.30904],[-97.75764,30.30904],[-97.75632,30.3202],[-97.75705,30.32407],[-97.75956,30.32641],[-97.76013,30.32555],[-97.76378,30.32735],[-97.7687,30.32105],[-97.764,30.3187],[-97.76728,30.31361],[-97.76904,30.31453],[-97.77383,30.3126],[-97.77588,30.31361],[-97.77607,30.32218],[-97.77975,30.33054],[-97.7883,30.34356],[-97.79683,30.34999],[-97.79108,30.35991],[-97.78943,30.36815],[-97.79084,30.36892],[-97.79032,30.36967],[-97.79496,30.37191],[-97.79444,30.37269],[-97.78815,30.36975],[-97.78467,30.37266],[-97.78369,30.37763],[-97.78062,30.37892],[-97.77827,30.37806],[-97.77141,30.38276],[-97.77157,30.3858],[-97.77323,30.38709],[-97.77493,30.39039],[-97.77324,30.39046],[-97.77408,30.39081],[-97.7788,30.38924],[-97.78344,30.39144],[-97.78266,30.39273],[-97.78107,30.39192],[-97.78055,30.39276],[-97.78163,30.39329],[-97.77895,30.39415],[-97.7794,30.3949],[-97.78363,30.39657],[-97.7889,30.39408],[-97.81167,30.40499],[-97.80834,30.41048],[-97.80405,30.41712],[-97.80648,30.41767],[-97.80575,30.41877],[-97.80205,30.41774],[-97.79379,30.42007],[-97.79455,30.42184],[-97.7931,30.42278],[-97.78606,30.42284],[-97.78496,30.42405],[-97.78471,30.42709],[-97.78182,30.42982],[-97.77829,30.43163],[-97.77922,30.43419],[-97.77635,30.4356],[-97.77552,30.43682],[-97.76606,30.43241],[-97.77904,30.43979],[-97.77788,30.4404],[-97.77839,30.44172],[-97.77515,30.44273],[-97.77757,30.44433],[-97.78188,30.44204],[-97.78408,30.44302],[-97.7801,30.44653],[-97.78523,30.45036],[-97.79067,30.44873],[-97.79283,30.45781],[-97.79217,30.45802],[-97.79487,30.46574],[-97.79117,30.46631],[-97.78921,30.46382],[-97.78781,30.46532],[-97.78756,30.46691],[-97.78992,30.47018],[-97.78061,30.47304],[-97.78041,30.4725],[-97.76953,30.47443],[-97.76053,30.47732],[-97.7531,30.47465],[-97.74879,30.47396],[-97.73694,30.47644],[-97.73021,30.47681],[-97.72299,30.47499],[-97.72052,30.47268],[-97.71974,30.47081],[-97.72124,30.45511],[-97.72072,30.45313],[-97.72774,30.43861],[-97.72067,30.45322],[-97.71804,30.44908],[-97.71236,30.44538],[-97.69815,30.44035],[-97.68925,30.43611],[-97.68968,30.43554],[-97.6864,30.43399],[-97.68606,30.43453],[-97.68475,30.43089],[-97.67659,30.42686],[-97.67118,30.42431],[-97.67006,30.43019],[-97.66618,30.42948],[-97.66524,30.42885],[-97.66873,30.42334],[-97.66577,30.42182],[-97.66492,30.42496],[-97.66501,30.42145],[-97.65877,30.4184],[-97.65456,30.41436],[-97.65107,30.42028],[-97.65737,30.42438],[-97.6567,30.43021],[-97.65099,30.4277],[-97.64999,30.42928],[-97.6467,30.42854],[-97.64683,30.42631],[-97.64788,30.42474],[-97.64553,30.42313],[-97.64719,30.42038],[-97.64565,30.41929],[-97.64833,30.41877],[-97.65199,30.41296],[-97.64858,30.4096],[-97.64609,30.41424],[-97.64544,30.41417],[-97.64776,30.41048],[-97.64678,30.40956],[-97.6423,30.40889],[-97.64101,30.40687],[-97.6417,30.4065],[-97.63786,30.40444],[-97.64449,30.39463],[-97.64946,30.38519],[-97.65269,30.38194],[-97.6597,30.37815],[-97.65871,30.37736],[-97.66019,30.37552],[-97.66651,30.37167],[-97.66879,30.36783],[-97.66862,30.36247],[-97.67443,30.35344],[-97.67583,30.35393],[-97.67773,30.3516],[-97.67853,30.3501],[-97.67804,30.34971],[-97.68013,30.34645],[-97.67969,30.3446],[-97.68082,30.34597],[-97.68256,30.34627],[-97.68727,30.33926],[-97.68332,30.33734],[-97.68622,30.33284],[-97.68015,30.33347],[-97.67998,30.33241],[-97.67929,30.33253],[-97.67707,30.3352],[-97.67741,30.3341],[-97.67583,30.33319],[-97.67889,30.32922],[-97.67323,30.32572],[-97.68089,30.3232],[-97.68126,30.32418],[-97.6825,30.32451],[-97.68348,30.32305],[-97.68457,30.32301],[-97.68429,30.32197],[-97.68488,30.32186],[-97.69206,30.32194],[-97.69414,30.32295],[-97.69364,30.32399],[-97.69525,30.32445],[-97.69807,30.32404],[-97.69849,30.32221],[-97.69505,30.32187],[-97.69539,30.32147],[-97.70565,30.32235],[-97.70689,30.32207],[-97.70868,30.31285],[-97.72013,30.29428],[-97.73395,30.30072],[-97.73424,30.30175],[-97.73764,30.30349],[-97.7373,30.30407],[-97.73298,30.31084],[-97.7375,30.31342],[-97.74311,30.3052]],[[-97.73663,30.31469],[-97.73719,30.31387],[-97.73629,30.31484],[-97.73663,30.31469]],[[-97.75804,30.43291],[-97.76017,30.43311],[-97.76032,30.43277],[-97.75804,30.43291]],[[-97.74168,30.41567],[-97.74138,30.4161],[-97.74297,30.41628],[-97.74168,30.41567]],[[-97.72945,30.41595],[-97.73057,30.41412],[-97.73034,30.4132],[-97.72945,30.41595]],[[-97.72849,30.4134],[-97.72934,30.41613],[-97.72937,30.41608],[-97.72849,30.4134]],[[-97.70841,30.41798],[-97.70927,30.41683],[-97.70822,30.41791],[-97.71569,30.42153],[-97.70841,30.41798]],[[-97.71032,30.41541],[-97.71094,30.41089],[-97.7101,30.41571],[-97.71032,30.41541]],[[-97.71738,30.36323],[-97.71936,30.36936],[-97.71952,30.36945],[-97.71738,30.36323]],[[-97.71735,30.34016],[-97.71299,30.34695],[-97.71308,30.34684],[-97.71735,30.34016]],[[-97.7277,30.3286],[-97.72749,30.32819],[-97.7276,30.32853],[-97.7277,30.3286]],[[-97.7719,30.3899],[-97.77257,30.39018],[-97.77102,30.38801],[-97.7719,30.3899]],[[-97.77032,30.38648],[-97.77051,30.38689],[-97.77048,30.38269],[-97.77032,30.38648]],[[-97.74514,30.36151],[-97.74684,30.36182],[-97.7467,30.3617],[-97.74514,30.36151]],[[-97.74345,30.36119],[-97.74347,30.36119],[-97.74799,30.3516],[-97.74345,30.36119]],[[-97.75502,30.33628],[-97.75512,30.33678],[-97.75528,30.33641],[-97.75502,30.33628]],[[-97.75128,30.33465],[-97.75456,30.33604],[-97.752,30.33472],[-97.75128,30.33465]],[[-97.746,30.33579],[-97.75052,30.33458],[-97.74975,30.3345],[-97.746,30.33579]],[[-97.74638,30.3306],[-97.74637,30.33064],[-97.74975,30.3345],[-97.74638,30.3306]],[[-97.7489,30.30952],[-97.74885,30.30938],[-97.74924,30.32038],[-97.74934,30.32021],[-97.7489,30.30952]],[[-97.74901,30.3208],[-97.74591,30.32006],[-97.74892,30.32095],[-97.74901,30.3208]],[[-97.74519,30.32114],[-97.74516,30.32119],[-97.74589,30.32553],[-97.74519,30.32114]],[[-97.76452,30.43599],[-97.76356,30.4364],[-97.76545,30.4357],[-97.76452,30.43599]],[[-97.76279,30.43337],[-97.76235,30.43344],[-97.76356,30.4364],[-97.76279,30.43337]],[[-97.7123,30.34781],[-97.71234,30.34776],[-97.70916,30.34639],[-97.7123,30.34781]],[[-97.72408,30.32375],[-97.72383,30.3235],[-97.71537,30.32042],[-97.71494,30.32043],[-97.72408,30.32375]],[[-97.71258,30.32046],[-97.70849,30.3217],[-97.71405,30.32044],[-97.71258,30.32046]],[[-97.71198,30.34821],[-97.70564,30.35335],[-97.71049,30.35006],[-97.71198,30.34821]],[[-97.70407,30.35452],[-97.70039,30.35727],[-97.70048,30.35736],[-97.70407,30.35452]],[[-97.70131,30.35824],[-97.70146,30.3584],[-97.70145,30.35831],[-97.70131,30.35824]],[[-97.70146,30.35841],[-97.70119,30.3619],[-97.70157,30.35951],[-97.70146,30.35841]],[[-97.69969,30.36263],[-97.69964,30.36266],[-97.69899,30.36401],[-97.69969,30.36263]],[[-97.69941,30.36427],[-97.69991,30.36444],[-97.69899,30.36401],[-97.69941,30.36427]],[[-97.69837,30.36507],[-97.69821,30.36534],[-97.69963,30.36655],[-97.69837,30.36507]],[[-97.68637,30.38193],[-97.68574,30.38304],[-97.68515,30.38456],[-97.68637,30.38193]],[[-97.68077,30.3945],[-97.68077,30.3945],[-97.68052,30.39512],[-97.68077,30.3945]],[[-97.69325,30.4145],[-97.69116,30.41358],[-97.69436,30.41511],[-97.69325,30.4145]]]}},{"type":"Feature","properties":{"zone":"East Austin"},"geometry":{"type":"MultiPolygon","coordinates":[[[[-97.72514,30.2791],[-97.72539,30.28019],[-97.72603,30.28314],[-97.7274,30.28308],[-97.71242,30.30649],[-97.71248,30.30597],[-97.70868,30.31285],[-97.70686,30.3222],[-97.69539,30.32147],[-97.69505,30.32187],[-97.69849,30.32221],[-97.69807,30.32404],[-97.69514,30.32446],[-97.69364,30.32399],[-97.69414,30.32295],[-97.69206,30.32194],[-97.68488,30.32186],[-97.68429,30.32197],[-97.68457,30.32301],[-97.68348,30.32305],[-97.6825,30.32451],[-97.68126,30.32418],[-97.68089,30.3232],[-97.67323,30.32572],[-97.66428,30.32796],[-97.62896,30.33148],[-97.62744,30.33383],[-97.62549,30.33293],[-97.62635,30.33163],[-97.62418,30.33176],[-97.6243,30.33115],[-97.62322,30.33093],[-97.61663,30.34185],[-97.61711,30.3402],[-97.61593,30.33763],[-97.61335,30.33609],[-97.61053,30.33569],[-97.60941,30.33457],[-97.60441,30.33561],[-97.59129,30.34032],[-97.58613,30.33048],[-97.57208,30.31273],[-97.56872,30.30292],[-97.5717,30.28965],[-97.57481,30.28795],[-97.58358,30.28856],[-97.58008,30.28682],[-97.57864,30.28534],[-97.57889,30.28421],[-97.58871,30.27581],[-97.5852,30.27494],[-97.58499,30.27399],[-97.58684,30.27072],[-97.58625,30.26979],[-97.5785,30.27043],[-97.57383,30.26654],[-97.57297,30.26518],[-97.57352,30.26419],[-97.57043,30.26296],[-97.57031,30.26151],[-97.56891,30.26103],[-97.56837,30.25961],[-97.56742,30.259],[-97.56504,30.25944],[-97.56368,30.25644],[-97.56495,30.25505],[-97.56399,30.25152],[-97.56228,30.25026],[-97.56241,30.24934],[-97.56072,30.24903],[-97.5648,30.24814],[-97.57067,30.2491],[-97.58019,30.24804],[-97.58303,30.24748],[-97.58341,30.24487],[-97.58367,30.24682],[-97.58441,30.24722],[-97.58812,30.24151],[-97.5903,30.24079],[-97.59305,30.24251],[-97.59328,30.24626],[-97.59636,30.24892],[-97.59564,30.25146],[-97.59868,30.25138],[-97.60942,30.25555],[-97.61397,30.259],[-97.61966,30.26103],[-97.62126,30.26268],[-97.6252,30.25537],[-97.62736,30.257],[-97.63152,30.25663],[-97.62882,30.2624],[-97.62743,30.26176],[-97.62504,30.26545],[-97.62666,30.26872],[-97.63441,30.25667],[-97.63894,30.25795],[-97.64141,30.26338],[-97.64062,30.26352],[-97.64086,30.26432],[-97.64423,30.26404],[-97.64616,30.26508],[-97.64573,30.26597],[-97.64224,30.26619],[-97.642,30.26985],[-97.64335,30.27211],[-97.64386,30.27553],[-97.64192,30.27855],[-97.64869,30.28108],[-97.6493,30.2781],[-97.65698,30.2664],[-97.65765,30.26869],[-97.65667,30.26897],[-97.658,30.27002],[-97.65819,30.2713],[-97.65764,30.27197],[-97.65579,30.2717],[-97.65536,30.27252],[-97.65676,30.27342],[-97.65525,30.27444],[-97.65684,30.27775],[-97.65477,30.28197],[-97.65538,30.2828],[-97.65451,30.28327],[-97.66526,30.28562],[-97.67037,30.267],[-97.67821,30.25483],[-97.68251,30.25141],[-97.69106,30.24945],[-97.69172,30.24811],[-97.69128,30.24518],[-97.69838,30.24631],[-97.70188,30.2502],[-97.70528,30.25061],[-97.71351,30.25043],[-97.72376,30.2466],[-97.72978,30.24811],[-97.73599,30.25061],[-97.7373,30.25826],[-97.73005,30.27851],[-97.72514,30.2791]],[[-97.66084,30.30262],[-97.66084,30.30357],[-97.66526,30.28562],[-97.66084,30.30262]],[[-97.70171,30.28291],[-97.69838,30.28395],[-97.70395,30.28257],[-97.70817,30.28188],[-97.70171,30.28291]],[[-97.70239,30.28123],[-97.70142,30.28139],[-97.70304,30.28115],[-97.70239,30.28123]],[[-97.69791,30.27356],[-97.69824,30.27404],[-97.69627,30.2681],[-97.69791,30.27356]],[[-97.66123,30.30836],[-97.66083,30.30501],[-97.66083,30.30651],[-97.66123,30.30836]],[[-97.66341,30.31642],[-97.66162,30.31016],[-97.66267,30.315],[-97.66341,30.31642]],[[-97.66556,30.31959],[-97.66443,30.31836],[-97.66472,30.31891],[-97.66556,30.31959]],[[-97.71248,30.30595],[-97.71254,30.3055],[-97.71234,30.3058],[-97.71248,30.30595]]],[[[-97.64375,30.26937],[-97.6458,30.26686],[-97.64897,30.26849],[-97.64712,30.27201],[-97.64415,30.27041],[-97.64375,30.26937]]]]}}]}