{"type":"FeatureCollection","features":[{"type":"Feature","properties":{"zone":"Downtown Miami"},"geometry":{"type":"Polygon","coordinates":[[[-80.17914,25.75134],[-80.18125,25.7513],[-80.19288,25.75801],[-80.19508,25.7593],[-80.19512,25.76154],[-80.1963,25.75998],[-80.20238,25.76375],[-80.21433,25.76293],[-80.21494,25.76586],[-80.21454,25.76865],[-80.21525,25.7691],[-80.21455,25.7696],[-80.2147,25.77451],[-80.21298,25.77456],[-80.21298,25.7736],[-80.21145,25.77366],[-80.21076,25.77461],[-80.20943,25.77467],[-80.20939,25.77367],[-80.20123,25.7742],[-80.20058,25.77304],[-80.2,25.77313],[-80.20059,25.77393],[-80.19951,25.77432],[-80.19772,25.77403],[-80.19776,25.77497],[-80.19366545527578,25.775109813722292],[-80.19371,25.77607],[-80.19202,25.77613],[-80.19202,25.77711],[-80.19205,25.77801],[-80.19379,25.778],[-80.19381675004738,25.780166753837406],[-80.19537,25.77988],[-80.19533,25.7789],[-80.19788,25.77886],[-80.19797,25.78072],[-80.19965,25.78069],[-80.19955,25.77878],[-80.20022,25.77974],[-80.20128,25.7797],[-80.20692,25.77829],[-80.21135,25.78031],[-80.20969,25.77898],[-80.2148,25.77862],[-80.215,25.78759],[-80.21717,25.78981],[-80.21504,25.79046],[-80.21511,25.79322],[-80.21091,25.79362],[-80.21108,25.79512],[-80.19845,25.79544],[-80.19845,25.79411],[-80.19768,25.79414],[-80.19768,25.79546],[-80.19445,25.79562],[-80.1877,25.79487],[-80.187,25.79538],[-80.18702,25.79714],[-80.18263,25.79715],[-80.18259,25.7919],[-80.18544,25.79192],[-80.18546,25.78724],[-80.18658,25.78703],[-80.18662,25.78833],[-80.18798,25.78828],[-80.18799,25.78705],[-80.18911,25.78703],[-80.18911,25.7859],[-80.18653,25.78693],[-80.17798,25.78714],[-80.17284,25.78151],[-80.16905,25.77921],[-80.13908,25.76619],[-80.13916,25.76545],[-80.16231,25.76435],[-80.17347,25.76978],[-80.17914,25.75134]],[[-80.1861,25.77781],[-80.18498206388207,25.77739722358723],[-80.18611842559842,25.778023045981737],[-80.1861,25.77781]],[[-80.1848,25.77733],[-80.18368,25.77914],[-80.1848483592519,25.77734785572378],[-80.1848,25.77733]],[[-80.19463,25.78826],[-80.19439629757785,25.78826],[-80.19467,25.79052],[-80.19463,25.78826]],[[-80.19232,25.78479],[-80.19222,25.78282],[-80.19226,25.78383],[-80.19232,25.78479]],[[-80.19383,25.78084],[-80.19219945879459,25.780496728167282],[-80.19212,25.7805],[-80.19383,25.78084]]]}},{"type":"Feature","properties":{"zone":"Miami Beach"},"geometry":{"type":"Polygon","coordinates":[[[-80.12387,25.78668],[-80.12586,25.77109],[-80.13051,25.77199],[-80.13079,25.76416],[-80.1367,25.76658],[-80.13732,25.76753],[-80.1384,25.76593],[-80.14141,25.76706],[-80.16905,25.77921],[-80.17284,25.78151],[-80.17798,25.78714],[-80.18653,25.78693],[-80.18908,25.78605],[-80.18911,25.78703],[-80.18799,25.78705],[-80.18798,25.78828],[-80.18662,25.78833],[-80.18658,25.78703],[-80.18546,25.78724],[-80.18544,25.79192],[-80.18259,25.7919],[-80.18263,25.79715],[-80.16376442842186,25.79753155088585],[-80.16325,25.79937],[-80.1594,25.81297],[-80.16006,25.82691],[-80.16138,25.85579],[-80.16347,25.85567],[-80.16191,25.85911],[-80.1567,25.87059],[-80.14577,25.87165],[-80.11522,25.87264],[-80.11495,25.85049],[-80.11137,25.85017],[-80.11081,25.83495],[-80.11019,25.81836],[-80.11448,25.81848],[-80.12165,25.796],[-80.12387,25.78668]]]}},{"type":"Feature","properties":{"zone":"Fort Lauderdale"},"geometry":{"type":"Polygon","coordinates":[[[-80.16856315453695,26.064920969523055],[-80.16852,26.0625],[-80.16557,26.06259],[-80.16702,26.06066],[-80.16841,26.06034],[-80.16763,26.04784],[-80.19908,26.04695],[-80.21458,26.04648],[-80.21425,26.043],[-80.21481,26.04598],[-80.24761,26.04559],[-80.24844,26.07263],[-80.25244,26.07287],[-80.25243,26.0736],[-80.25233,26.07465],[-80.24869,26.07456],[-80.2493,26.09083],[-80.24422,26.08958],[-80.24453,26.08907],[-80.24343,26.08836],[-80.2364,26.08659],[-80.23614,26.08751],[-80.2291,26.08577],[-80.22667,26.09414],[-80.20209494245539,26.08812345119797],[-80.20118,26.09123],[-80.2016,26.10594],[-80.2009,26.10635],[-80.20103,26.11753],[-80.20038,26.11805],[-80.20192,26.11849],[-80.2021,26.12359],[-80.20122074960894,26.12360373828736],[-80.20177,26.13367],[-80.20127,26.13598],[-80.20204383273351,26.136100207026566],[-80.21618,26.13596],[-80.21656,26.13754],[-80.21941,26.13753],[-80.21899,26.13589],[-80.25067,26.13559],[-80.25106,26.14852],[-80.25697,26.14847],[-80.25701,26.15015],[-80.24628,26.15017],[-80.24695,26.15101],[-80.24515,26.1512],[-80.24517,26.15216],[-80.24722,26.15195],[-80.24851,26.15525],[-80.25305,26.15493],[-80.25355,26.15839],[-80.25285,26.15973],[-80.24914,26.16249],[-80.24978,26.16367],[-80.24472,26.16403],[-80.24471,26.16461],[-80.25144,26.16472],[-80.25148,26.16661],[-80.24474,26.16566],[-80.24477,26.16699],[-80.24291,26.16702],[-80.24077,26.16637],[-80.24184,26.16517],[-80.23804,26.16483],[-80.23723,26.16641],[-80.23488,26.16566],[-80.23139,26.16604],[-80.23016,26.16708],[-80.22793,26.16569],[-80.2279,26.16485],[-80.22267,26.16485],[-80.22056,26.16724],[-80.2206,26.17284],[-80.21938,26.17285],[-80.2192,26.16843],[-80.21628,26.16846],[-80.21621,26.16484],[-80.20317,26.16486],[-80.20297034690137,26.164878880675325],[-80.20312,26.16871],[-80.20172,26.16874],[-80.2016,26.17147],[-80.20331,26.1712],[-80.20374,26.18654],[-80.20355,26.1878],[-80.19958,26.18778],[-80.19963,26.1896],[-80.20356,26.1896],[-80.20395,26.20001],[-80.20072,26.20387],[-80.19978,26.20287],[-80.19557,26.20298],[-80.19555,26.20903],[-80.18815,26.2092],[-80.18797,26.20972],[-80.17679,26.20924],[-80.1736,26.20993],[-80.14824,26.21092],[-80.14802,26.21193],[-80.1382,26.209],[-80.1481,26.19949],[-80.14668,26.19555],[-80.14644,26.16659],[-80.14634157898286,26.159873937258737],[-80.14431,26.1592],[-80.13787,26.15937],[-80.1374,26.15995],[-80.13657,26.1594],[-80.1366,26.16021],[-80.13499,26.16023],[-80.13496,26.15944],[-80.12955,26.15956],[-80.12956,26.16028],[-80.12356,26.15969],[-80.12356,26.16041],[-80.11902,26.1599],[-80.123,26.16042],[-80.12289,26.16486],[-80.12402,26.16491],[-80.12409,26.16631],[-80.12611,26.16655],[-80.12398,26.16708],[-80.12401,26.16885],[-80.1219,26.16886],[-80.12203,26.17172],[-80.12167712699649,26.171887150370083],[-80.12262,26.17664],[-80.12266,26.17917],[-80.12144,26.17919],[-80.12149,26.18063],[-80.12253,26.18066],[-80.12229,26.19277],[-80.12306,26.20485],[-80.12253,26.20485],[-80.12256,26.20843],[-80.12059,26.20887],[-80.12005,26.21064],[-80.11011,26.21087],[-80.11006,26.20969],[-80.10421,26.20981],[-80.10421,26.21169],[-80.0983,26.21181],[-80.10006,26.20466],[-80.08875,26.20494],[-80.09322,26.16757],[-80.09543,26.15733],[-80.09836,26.13787],[-80.10025,26.09623],[-80.10248,26.09306],[-80.11146,26.09258],[-80.11185,26.09044],[-80.11232,26.09125],[-80.11274,26.08996],[-80.11536,26.08974],[-80.1143,26.08611],[-80.11482,26.08251],[-80.11635,26.08248],[-80.1163,26.08174],[-80.11514,26.08175],[-80.11629,26.08164],[-80.11629,26.08092],[-80.11504,26.08098],[-80.11546,26.07857],[-80.12195,26.07827],[-80.1221,26.08214],[-80.12926,26.08193],[-80.13308,26.08026],[-80.13862,26.08106],[-80.13883963636364,26.081413454545455],[-80.13934,26.08114],[-80.13893,26.07985],[-80.13569,26.07469],[-80.13589,26.07164],[-80.1372,26.06912],[-80.14403,26.06355],[-80.16014,26.06507],[-80.16231,26.0675],[-80.16211,26.07014],[-80.16636,26.07024],[-80.16773797891624,26.074520171245968],[-80.16623,26.06811],[-80.16862,26.06811],[-80.1685874439601,26.066283606161917],[-80.16734,26.06593],[-80.16719,26.065],[-80.16856315453695,26.064920969523055]],[[-80.1445496927999,26.147453652991306],[-80.14461735895846,26.147970622442656],[-80.14596,26.1474],[-80.1445496927999,26.147453652991306]],[[-80.1444,26.14219],[-80.1439,26.14249],[-80.14424451153764,26.145122068147533],[-80.1444,26.14219]],[[-80.14399,26.13164],[-80.14315,26.13249],[-80.14316792477995,26.133254790610835],[-80.14399,26.13164]],[[-80.14463799999983,26.129696000000006],[-80.1398,26.12986],[-80.14279,26.12978],[-80.14463799999983,26.129696000000006]],[[-80.14587,26.12964],[-80.14537,26.12215],[-80.14569946179402,26.129647751736634],[-80.14587,26.12964]],[[-80.14796,26.11922],[-80.14797798550391,26.11919453903973],[-80.14542,26.11856],[-80.14335,26.1183],[-80.14796,26.11922]],[[-80.14366,26.10444],[-80.142,26.09644],[-80.14362370729995,26.104448961160504],[-80.14366,26.10444]],[[-80.14203,26.09265],[-80.14035,26.09267],[-80.14037770789362,26.09279930350359],[-80.14203,26.09265]],[[-80.15933,26.10881],[-80.15645,26.11289],[-80.15481,26.1141],[-80.15643,26.11292],[-80.15933,26.10881]],[[-80.16889982631253,26.07945899412451],[-80.16925550969145,26.085830094648582],[-80.16922,26.08082],[-80.16889982631253,26.07945899412451]],[[-80.20117,26.05423],[-80.20087,26.04868],[-80.20094,26.05567],[-80.20117,26.05423]],[[-80.20257,26.06773],[-80.20007,26.06765],[-80.20250475070287,26.067857003096194],[-80.20257,26.06773]],[[-80.20289483032006,26.085388298866004],[-80.20291,26.08534],[-80.20178,26.08462],[-80.20006995449103,26.084458745708584],[-80.20289483032006,26.085388298866004]],[[-80.19933,26.14489],[-80.19973,26.14618],[-80.19904,26.13613],[-80.19933,26.14489]],[[-80.10946,26.11991],[-80.10825,26.1197],[-80.10947,26.12017],[-80.10934,26.11294],[-80.10946,26.11991]],[[-80.12512,26.11502],[-80.12828,26.11667],[-80.12833491785791,26.116637260507787],[-80.12512,26.11502]],[[-80.10525,26.16003],[-80.10427781867493,26.166781259201873],[-80.1043,26.17108],[-80.10525,26.16003]],[[-80.09959,26.1615],[-80.09993,26.15948],[-80.09959544715784,26.159348372652264],[-80.09959,26.1615]],[[-80.09959994345095,26.15757233687076],[-80.10002,26.15507],[-80.0996,26.15755],[-80.09959994345095,26.15757233687076]],[[-80.13339343245579,26.147708641874374],[-80.13409,26.14781],[-80.14127,26.14754],[-80.13339343245579,26.147708641874374]]]}},{"type":"Feature","properties":{"zone":"Coral Gables"},"geometry":{"type":"Polygon","coordinates":[[[-80.24503,25.69843],[-80.24638,25.69911],[-80.24669,25.69851],[-80.24601,25.69815],[-80.24732,25.69758],[-80.2492,25.69065],[-80.25121,25.6908],[-80.25037,25.69384],[-80.25515,25.69341],[-80.25692,25.69405],[-80.25749,25.69322],[-80.26066,25.69312],[-80.26184,25.69318],[-80.26231,25.69404],[-80.26374,25.69289],[-80.26661,25.69282],[-80.26687,25.69088],[-80.26766,25.69029],[-80.26573,25.69019],[-80.26578,25.68948],[-80.26852,25.69033],[-80.2734,25.69003],[-80.27386,25.69141],[-80.27588,25.69113],[-80.27598,25.68994],[-80.28529,25.68965],[-80.30517,25.69221],[-80.31746,25.69235],[-80.31743,25.69031],[-80.32144,25.69019],[-80.32137,25.68843],[-80.33354,25.68808],[-80.33455,25.70989],[-80.33346,25.71005],[-80.33366,25.71369],[-80.33481,25.71454],[-80.33487,25.71583],[-80.32673,25.71726],[-80.28797,25.71884],[-80.28794,25.71809],[-80.28591763976311,25.718159056203213],[-80.28654,25.73444],[-80.28813,25.77124],[-80.28554,25.7709],[-80.28572,25.77449],[-80.28208,25.77464],[-80.28199,25.77224],[-80.27917,25.77236],[-80.27914,25.77154],[-80.27687,25.77125],[-80.26718,25.7716],[-80.26671,25.77243],[-80.26569,25.77162],[-80.25549,25.77254],[-80.25440083601602,25.74474178768826],[-80.25391,25.745],[-80.25161,25.74465],[-80.24538,25.7459],[-80.2431,25.74507],[-80.23806,25.74523],[-80.23763,25.74591],[-80.23038,25.74613],[-80.22991,25.74552],[-80.2245,25.74617],[-80.22374,25.74532],[-80.21139,25.74936],[-80.20996,25.74769],[-80.21679,25.743],[-80.21433,25.74068],[-80.21621,25.73912],[-80.21436,25.7383],[-80.21067,25.74073],[-80.21055,25.74378],[-80.20878,25.74547],[-80.20263,25.74821],[-80.19948,25.74586],[-80.19728,25.74554],[-80.19032,25.74562],[-80.18936,25.74637],[-80.17891,25.74606],[-80.18247,25.73721],[-80.18739,25.73873],[-80.19974,25.74004],[-80.20573,25.73791],[-80.23798,25.71876],[-80.23762,25.70957],[-80.24776,25.70952],[-80.24608,25.70752],[-80.24544,25.70203],[-80.24503,25.69843]],[[-80.2494552159093,25.704358992180236],[-80.25025,25.70482],[-80.25107743199474,25.704823079771693],[-80.2494552159093,25.704358992180236]],[[-80.25146,25.73515],[-80.25401,25.73507],[-80.25858,25.7349],[-80.25146,25.73515]],[[-80.26112,25.7054],[-80.26104449126365,25.705638607606875],[-80.27721,25.70478],[-80.26245,25.70534],[-80.26112,25.7054]],[[-80.2547,25.73867],[-80.25453500770642,25.73780917064222],[-80.25424,25.74141],[-80.2547,25.73867]]]}}]}
